ONEWEB-0371             
1 49297U 21090U   26132.25271175  .00000067  00000+0  13430-3 0  9993
2 49297  87.9147 312.1311 0001685  89.1487 270.9839 13.19725895221719
ONEWEB-0372             
1 49298U 21090V   26132.17732954  .00000042  00000+0  71691-4 0  9999
2 49298  87.9160 281.6238 0001857  96.9425 263.1920 13.20658796225088
ONEWEB-0373             
1 49299U 21090W   26131.90042831  .00000097  00000+0  20592-3 0  9991
2 49299  87.9157 281.6806 0001876 100.6617 259.4728 13.20869040226231
ONEWEB-0374             
1 49300U 21090X   26132.19111862 -.00000352  00000+0 -98513-3 0  9991
2 49300  87.8930 296.8782 0002364 101.9735 258.1660 13.14502437222831
ONEWEB-0375             
1 49301U 21090Y   26131.88822896  .00000024  00000+0  27687-4 0  9992
2 49301  87.9160 281.6739 0002348 106.2185 253.9207 13.20755669225737
ONEWEB-0376             
1 49302U 21090Z   26132.25112256  .00000033  00000+0  49219-4 0  9992
2 49302  87.9154 312.1295 0001753  84.6841 275.4492 13.19726591221714
ONEWEB-0377             
1 49303U 21090AA  26132.17759805 -.00000039  00000+0 -12771-3 0  9991
2 49303  87.9161 281.6179 0001825 103.7780 256.3556 13.20657688225769
ONEWEB-0378             
1 49304U 21090AB  26131.89565654  .00000095  00000+0  20202-3 0  9995
2 49304  87.9157 281.6811 0002019  98.3802 261.7560 13.20910778224999
ONEWEB-0379             
1 49305U 21090AC  26131.88189978 -.00000057  00000+0 -18857-3 0  9999
2 49305  87.8931 296.9509 0001953  95.7982 264.3370 13.14504100222793
ONEWEB-0380             
1 49306U 21090AD  26132.24795517  .00000939  00000+0  23115-2 0  9992
2 49306  87.9144 312.1388 0001806  98.3637 261.7700 13.19734928221683
ONEWEB-0381             
1 49307U 21090AE  26132.17420664 -.00000052  00000+0 -16041-3 0  9992
2 49307  87.9160 281.6230 0002105 101.0569 259.0802 13.20686407225077
ONEWEB-0382             
1 49308U 21090AF  26132.16110343  .00000033  00000+0  49821-4 0  9992
2 49308  87.9157 281.6206 0002189  99.2584 260.8797 13.20798833225063
ONEWEB-0383             
1 49309U 21090AG  26132.18003837 -.00000145  00000+0 -42587-3 0  9991
2 49309  87.8939 296.8805 0001981  93.5969 266.5387 13.14503822222865
ONEWEB-0384             
1 49310U 21090AH  26132.15074090  .00000033  00000+0  47955-4 0  9998
2 49310  87.9162 281.6660 0002367  97.7321 262.4081 13.20810757225071
ONEWEB-0385             
1 49311U 21090AJ  26132.15384346  .00000078  00000+0  15958-3 0  9993
2 49311  87.9159 281.6270 0002078  99.0180 261.1189 13.20643867225040
ONEWEB-0386             
1 49312U 21090AK  26132.17093905 -.00000046  00000+0 -14539-3 0  9995
2 49312  87.9168 281.6130 0002092  96.9123 263.2248 13.20716912225068
