[{"OBJECT_NAME":"ONEWEB-0371","OBJECT_ID":"2021-090U","EPOCH":"2026-05-12T06:03:54.295200","MEAN_MOTION":13.19725895,"ECCENTRICITY":0.0001685,"INCLINATION":87.9147,"RA_OF_ASC_NODE":312.1311,"ARG_OF_PERICENTER":89.1487,"MEAN_ANOMALY":270.9839,"EPHEMERIS_TYPE":0,"CLASSIFICATION_TYPE":"U","NORAD_CAT_ID":49297,"ELEMENT_SET_NO":999,"REV_AT_EPOCH":22171,"BSTAR":0.0001343,"MEAN_MOTION_DOT":6.7e-07,"MEAN_MOTION_DDOT":0.0},{"OBJECT_NAME":"ONEWEB-0372","OBJECT_ID":"2021-090V","EPOCH":"2026-05-12T04:15:21.272256","MEAN_MOTION":13.20658796,"ECCENTRICITY":0.0001857,"INCLINATION":87.916,"RA_OF_ASC_NODE":281.6238,"ARG_OF_PERICENTER":96.9425,"MEAN_ANOMALY":263.192,"EPHEMERIS_TYPE":0,"CLASSIFICATION_TYPE":"U","NORAD_CAT_ID":49298,"ELEMENT_SET_NO":999,"REV_AT_EPOCH":22508,"BSTAR":7.1691e-05,"MEAN_MOTION_DOT":4.2e-07,"MEAN_MOTION_DDOT":0.0},{"OBJECT_NAME":"ONEWEB-0373","OBJECT_ID":"2021-090W","EPOCH":"2026-05-11T21:36:37.005984","MEAN_MOTION":13.2086904,"ECCENTRICITY":0.0001876,"INCLINATION":87.9157,"RA_OF_ASC_NODE":281.6806,"ARG_OF_PERICENTER":100.6617,"MEAN_ANOMALY":259.4728,"EPHEMERIS_TYPE":0,"CLASSIFICATION_TYPE":"U","NORAD_CAT_ID":49299,"ELEMENT_SET_NO":999,"REV_AT_EPOCH":22623,"BSTAR":0.00020592,"MEAN_MOTION_DOT":9.7e-07,"MEAN_MOTION_DDOT":0.0},{"OBJECT_NAME":"ONEWEB-0374","OBJECT_ID":"2021-090X","EPOCH":"2026-05-12T04:35:12.648768","MEAN_MOTION":13.14502437,"ECCENTRICITY":0.0002364,"INCLINATION":87.893,"RA_OF_ASC_NODE":296.8782,"ARG_OF_PERICENTER":101.9735,"MEAN_ANOMALY":258.166,"EPHEMERIS_TYPE":0,"CLASSIFICATION_TYPE":"U","NORAD_CAT_ID":49300,"ELEMENT_SET_NO":999,"REV_AT_EPOCH":22283,"BSTAR":-0.00098513,"MEAN_MOTION_DOT":-3.52e-06,"MEAN_MOTION_DDOT":0.0},{"OBJECT_NAME":"ONEWEB-0375","OBJECT_ID":"2021-090Y","EPOCH":"2026-05-11T21:19:02.982144","MEAN_MOTION":13.20755669,"ECCENTRICITY":0.0002348,"INCLINATION":87.916,"RA_OF_ASC_NODE":281.6739,"ARG_OF_PERICENTER":106.2185,"MEAN_ANOMALY":253.9207,"EPHEMERIS_TYPE":0,"CLASSIFICATION_TYPE":"U","NORAD_CAT_ID":49301,"ELEMENT_SET_NO":999,"REV_AT_EPOCH":22573,"BSTAR":2.7687e-05,"MEAN_MOTION_DOT":2.4e-07,"MEAN_MOTION_DDOT":0.0},{"OBJECT_NAME":"ONEWEB-0376","OBJECT_ID":"2021-090Z","EPOCH":"2026-05-12T06:01:36.989184","MEAN_MOTION":13.19726591,"ECCENTRICITY":0.0001753,"INCLINATION":87.9154,"RA_OF_ASC_NODE":312.1295,"ARG_OF_PERICENTER":84.6841,"MEAN_ANOMALY":275.4492,"EPHEMERIS_TYPE":0,"CLASSIFICATION_TYPE":"U","NORAD_CAT_ID":49302,"ELEMENT_SET_NO":999,"REV_AT_EPOCH":22171,"BSTAR":4.9219000000000004e-05,"MEAN_MOTION_DOT":3.3e-07,"MEAN_MOTION_DDOT":0.0},{"OBJECT_NAME":"ONEWEB-0377","OBJECT_ID":"2021-090AA","EPOCH":"2026-05-12T04:15:44.471520","MEAN_MOTION":13.20657688,"ECCENTRICITY":0.0001825,"INCLINATION":87.9161,"RA_OF_ASC_NODE":281.6179,"ARG_OF_PERICENTER":103.778,"MEAN_ANOMALY":256.3556,"EPHEMERIS_TYPE":0,"CLASSIFICATION_TYPE":"U","NORAD_CAT_ID":49303,"ELEMENT_SET_NO":999,"REV_AT_EPOCH":22576,"BSTAR":-0.00012770999999999998,"MEAN_MOTION_DOT":-3.9e-07,"MEAN_MOTION_DDOT":0.0},{"OBJECT_NAME":"ONEWEB-0378","OBJECT_ID":"2021-090AB","EPOCH":"2026-05-11T21:29:44.725056","MEAN_MOTION":13.20910778,"ECCENTRICITY":0.0002019,"INCLINATION":87.9157,"RA_OF_ASC_NODE":281.6811,"ARG_OF_PERICENTER":98.3802,"MEAN_ANOMALY":261.756,"EPHEMERIS_TYPE":0,"CLASSIFICATION_TYPE":"U","NORAD_CAT_ID":49304,"ELEMENT_SET_NO":999,"REV_AT_EPOCH":22499,"BSTAR":0.00020202000000000002,"MEAN_MOTION_DOT":9.5e-07,"MEAN_MOTION_DDOT":0.0},{"OBJECT_NAME":"ONEWEB-0379","OBJECT_ID":"2021-090AC","EPOCH":"2026-05-11T21:09:56.140992","MEAN_MOTION":13.145041,"ECCENTRICITY":0.0001953,"INCLINATION":87.8931,"RA_OF_ASC_NODE":296.9509,"ARG_OF_PERICENTER":95.7982,"MEAN_ANOMALY":264.337,"EPHEMERIS_TYPE":0,"CLASSIFICATION_TYPE":"U","NORAD_CAT_ID":49305,"ELEMENT_SET_NO":999,"REV_AT_EPOCH":22279,"BSTAR":-0.00018857,"MEAN_MOTION_DOT":-5.7e-07,"MEAN_MOTION_DDOT":0.0},{"OBJECT_NAME":"ONEWEB-0380","OBJECT_ID":"2021-090AD","EPOCH":"2026-05-12T05:57:03.326688","MEAN_MOTION":13.19734928,"ECCENTRICITY":0.0001806,"INCLINATION":87.9144,"RA_OF_ASC_NODE":312.1388,"ARG_OF_PERICENTER":98.3637,"MEAN_ANOMALY":261.77,"EPHEMERIS_TYPE":0,"CLASSIFICATION_TYPE":"U","NORAD_CAT_ID":49306,"ELEMENT_SET_NO":999,"REV_AT_EPOCH":22168,"BSTAR":0.0023115,"MEAN_MOTION_DOT":9.39e-06,"MEAN_MOTION_DDOT":0.0},{"OBJECT_NAME":"ONEWEB-0381","OBJECT_ID":"2021-090AE","EPOCH":"2026-05-12T04:10:51.453696","MEAN_MOTION":13.20686407,"ECCENTRICITY":0.0002105,"INCLINATION":87.916,"RA_OF_ASC_NODE":281.623,"ARG_OF_PERICENTER":101.0569,"MEAN_ANOMALY":259.0802,"EPHEMERIS_TYPE":0,"CLASSIFICATION_TYPE":"U","NORAD_CAT_ID":49307,"ELEMENT_SET_NO":999,"REV_AT_EPOCH":22507,"BSTAR":-0.00016041,"MEAN_MOTION_DOT":-5.2e-07,"MEAN_MOTION_DDOT":0.0},{"OBJECT_NAME":"ONEWEB-0382","OBJECT_ID":"2021-090AF","EPOCH":"2026-05-12T03:51:59.336352","MEAN_MOTION":13.20798833,"ECCENTRICITY":0.0002189,"INCLINATION":87.9157,"RA_OF_ASC_NODE":281.6206,"ARG_OF_PERICENTER":99.2584,"MEAN_ANOMALY":260.8797,"EPHEMERIS_TYPE":0,"CLASSIFICATION_TYPE":"U","NORAD_CAT_ID":49308,"ELEMENT_SET_NO":999,"REV_AT_EPOCH":22506,"BSTAR":4.9821e-05,"MEAN_MOTION_DOT":3.3e-07,"MEAN_MOTION_DDOT":0.0},{"OBJECT_NAME":"ONEWEB-0383","OBJECT_ID":"2021-090AG","EPOCH":"2026-05-12T04:19:15.315168","MEAN_MOTION":13.14503822,"ECCENTRICITY":0.0001981,"INCLINATION":87.8939,"RA_OF_ASC_NODE":296.8805,"ARG_OF_PERICENTER":93.5969,"MEAN_ANOMALY":266.5387,"EPHEMERIS_TYPE":0,"CLASSIFICATION_TYPE":"U","NORAD_CAT_ID":49309,"ELEMENT_SET_NO":999,"REV_AT_EPOCH":22286,"BSTAR":-0.00042587,"MEAN_MOTION_DOT":-1.45e-06,"MEAN_MOTION_DDOT":0.0},{"OBJECT_NAME":"ONEWEB-0384","OBJECT_ID":"2021-090AH","EPOCH":"2026-05-12T03:37:04.013760","MEAN_MOTION":13.20810757,"ECCENTRICITY":0.0002367,"INCLINATION":87.9162,"RA_OF_ASC_NODE":281.666,"ARG_OF_PERICENTER":97.7321,"MEAN_ANOMALY":262.4081,"EPHEMERIS_TYPE":0,"CLASSIFICATION_TYPE":"U","NORAD_CAT_ID":49310,"ELEMENT_SET_NO":999,"REV_AT_EPOCH":22507,"BSTAR":4.7955e-05,"MEAN_MOTION_DOT":3.3e-07,"MEAN_MOTION_DDOT":0.0},{"OBJECT_NAME":"ONEWEB-0385","OBJECT_ID":"2021-090AJ","EPOCH":"2026-05-12T03:41:32.074944","MEAN_MOTION":13.20643867,"ECCENTRICITY":0.0002078,"INCLINATION":87.9159,"RA_OF_ASC_NODE":281.627,"ARG_OF_PERICENTER":99.018,"MEAN_ANOMALY":261.1189,"EPHEMERIS_TYPE":0,"CLASSIFICATION_TYPE":"U","NORAD_CAT_ID":49311,"ELEMENT_SET_NO":999,"REV_AT_EPOCH":22504,"BSTAR":0.00015958000000000001,"MEAN_MOTION_DOT":7.8e-07,"MEAN_MOTION_DDOT":0.0},{"OBJECT_NAME":"ONEWEB-0386","OBJECT_ID":"2021-090AK","EPOCH":"2026-05-12T04:06:09.133920","MEAN_MOTION":13.20716912,"ECCENTRICITY":0.0002092,"INCLINATION":87.9168,"RA_OF_ASC_NODE":281.613,"ARG_OF_PERICENTER":96.9123,"MEAN_ANOMALY":263.2248,"EPHEMERIS_TYPE":0,"CLASSIFICATION_TYPE":"U","NORAD_CAT_ID":49312,"ELEMENT_SET_NO":999,"REV_AT_EPOCH":22506,"BSTAR":-0.00014539,"MEAN_MOTION_DOT":-4.6e-07,"MEAN_MOTION_DDOT":0.0}]